{"type": "FeatureCollection", "features": [ {"type": "Feature", "properties": {"norad_id": 40534, "name": "GPS BIIF-9  (PRN 26)", "group": "gps-ops", "lat": -6.094815186867216, "lon": 36.867991204143216, "alt_km": 20426.358431466884, "timestamp": "2025-12-03T08:58:46.254754+00:00", "meta": {"OBJECT_NAME": "GPS BIIF-9  (PRN 26)", "OBJECT_ID": "2015-013A", "EPOCH": "2025-12-02T02:51:32.874336", "MEAN_MOTION": 2.00563085, "ECCENTRICITY": 0.010658, "INCLINATION": 53.1996, "RA_OF_ASC_NODE": 212.3303, "ARG_OF_PERICENTER": 38.2186, "MEAN_ANOMALY": 322.6251, "EPHEMERIS_TYPE": 0, "CLASSIFICATION_TYPE": "U", "NORAD_CAT_ID": 40534, "ELEMENT_SET_NO": 999, "REV_AT_EPOCH": 7787, "BSTAR": 0, "MEAN_MOTION_DOT": 7.3e-07, "MEAN_MOTION_DDOT": 0}, "tle": {"line1": "1 40534U 15013A   25336.11913049  .00000073  00000+0  00000+0 0  9991", "line2": "2 40534  53.1996 212.3303 0106580  38.2186 322.6251  2.00563085 77872"}}, "geometry": {"type": "Point", "coordinates": [36.867991204143216, -6.094815186867216]}}, {"type": "Feature", "properties": {"norad_id": 40730, "name": "GPS BIIF-10 (PRN 08)", "group": "gps-ops", "lat": 50.09759398464756, "lon": -25.10976388905424, "alt_km": 19966.241441549413, "timestamp": "2025-12-03T08:58:46.254766+00:00", "meta": {"OBJECT_NAME": "GPS BIIF-10 (PRN 08)", "OBJECT_ID": "2015-033A", "EPOCH": "2025-12-02T06:43:54.109632", "MEAN_MOTION": 2.00566042, "ECCENTRICITY": 0.01103091, "INCLINATION": 54.1399, "RA_OF_ASC_NODE": 275.2033, "ARG_OF_PERICENTER": 26.5495, "MEAN_ANOMALY": 334.0087, "EPHEMERIS_TYPE": 0, "CLASSIFICATION_TYPE": "U", "NORAD_CAT_ID": 40730, "ELEMENT_SET_NO": 999, "REV_AT_EPOCH": 7604, "BSTAR": 0, "MEAN_MOTION_DOT": -3.8e-07, "MEAN_MOTION_DDOT": 0}, "tle": {"line1": "1 40730U 15033A   25336.28048738 -.00000038  00000+0  00000+0 0  9995", "line2": "2 40730  54.1399 275.2033 0110309  26.5495 334.0087  2.00566042 76041"}}, "geometry": {"type": "Point", "coordinates": [-25.10976388905424, 50.09759398464756]}}, {"type": "Feature", "properties": {"norad_id": 41019, "name": "GPS BIIF-11 (PRN 10)", "group": "gps-ops", "lat": 21.817173784940216, "lon": 53.544707275676494, "alt_km": 20449.08712223378, "timestamp": "2025-12-03T08:58:46.254778+00:00", "meta": {"OBJECT_NAME": "GPS BIIF-11 (PRN 10)", "OBJECT_ID": "2015-062A", "EPOCH": "2025-12-01T20:11:25.977696", "MEAN_MOTION": 2.00566903, "ECCENTRICITY": 0.011051, "INCLINATION": 56.8244, "RA_OF_ASC_NODE": 38.424, "ARG_OF_PERICENTER": 229.6519, "MEAN_ANOMALY": 129.4268, "EPHEMERIS_TYPE": 0, "CLASSIFICATION_TYPE": "U", "NORAD_CAT_ID": 41019, "ELEMENT_SET_NO": 999, "REV_AT_EPOCH": 7387, "BSTAR": 0, "MEAN_MOTION_DOT": -6.5e-07, "MEAN_MOTION_DDOT": 0}, "tle": {"line1": "1 41019U 15062A   25335.84127289 -.00000065  00000+0  00000+0 0  9998", "line2": "2 41019  56.8244  38.4240 0110510 229.6519 129.4268  2.00566903 73877"}}, "geometry": {"type": "Point", "coordinates": [53.544707275676494, 21.817173784940216]}}, {"type": "Feature", "properties": {"norad_id": 41328, "name": "GPS BIIF-12 (PRN 32)", "group": "gps-ops", "lat": -26.242493473014278, "lon": 77.33611562292425, "alt_km": 20159.31455618344, "timestamp": "2025-12-03T08:58:46.254796+00:00", "meta": {"OBJECT_NAME": "GPS BIIF-12 (PRN 32)", "OBJECT_ID": "2016-007A", "EPOCH": "2025-12-01T22:09:54.040896", "MEAN_MOTION": 2.0056114, "ECCENTRICITY": 0.0091649, "INCLINATION": 55.3999, "RA_OF_ASC_NODE": 97.2864, "ARG_OF_PERICENTER": 243.3101, "MEAN_ANOMALY": 115.7281, "EPHEMERIS_TYPE": 0, "CLASSIFICATION_TYPE": "U", "NORAD_CAT_ID": 41328, "ELEMENT_SET_NO": 999, "REV_AT_EPOCH": 7188, "BSTAR": 0, "MEAN_MOTION_DOT": 1.1e-07, "MEAN_MOTION_DDOT": 0}, "tle": {"line1": "1 41328U 16007A   25335.92354214  .00000011  00000+0  00000+0 0  9990", "line2": "2 41328  55.3999  97.2864 0091649 243.3101 115.7281  2.00561140 71887"}}, "geometry": {"type": "Point", "coordinates": [77.33611562292425, -26.242493473014278]}}, {"type": "Feature", "properties": {"norad_id": 43873, "name": "GPS BIII-1  (PRN 04)", "group": "gps-ops", "lat": -33.20043814314075, "lon": -53.440766981183245, "alt_km": 20099.280709586696, "timestamp": "2025-12-03T08:58:46.254819+00:00", "meta": {"OBJECT_NAME": "GPS BIII-1  (PRN 04)", "OBJECT_ID": "2018-109A", "EPOCH": "2025-12-02T13:53:48.865056", "MEAN_MOTION": 2.00553145, "ECCENTRICITY": 0.00371805, "INCLINATION": 55.5613, "RA_OF_ASC_NODE": 99.9484, "ARG_OF_PERICENTER": 194.5324, "MEAN_ANOMALY": 172.7169, "EPHEMERIS_TYPE": 0, "CLASSIFICATION_TYPE": "U", "NORAD_CAT_ID": 43873, "ELEMENT_SET_NO": 999, "REV_AT_EPOCH": 5113, "BSTAR": 0, "MEAN_MOTION_DOT": 1e-07, "MEAN_MOTION_DDOT": 0}, "tle": {"line1": "1 43873U 18109A   25336.57903779  .00000010  00000+0  00000+0 0  9999", "line2": "2 43873  55.5613  99.9484 0037180 194.5324 172.7169  2.00553145 51130"}}, "geometry": {"type": "Point", "coordinates": [-53.440766981183245, -33.20043814314075]}}, {"type": "Feature", "properties": {"norad_id": 44506, "name": "GPS BIII-2  (PRN 18)", "group": "gps-ops", "lat": 47.25358233356861, "lon": 111.37247762085003, "alt_km": 20152.282553013625, "timestamp": "2025-12-03T08:58:46.254837+00:00", "meta": {"OBJECT_NAME": "GPS BIII-2  (PRN 18)", "OBJECT_ID": "2019-056A", "EPOCH": "2025-12-02T10:49:28.764768", "MEAN_MOTION": 2.00565569, "ECCENTRICITY": 0.00578163, "INCLINATION": 55.7251, "RA_OF_ASC_NODE": 338.9617, "ARG_OF_PERICENTER": 198.402, "MEAN_ANOMALY": 332.9603, "EPHEMERIS_TYPE": 0, "CLASSIFICATION_TYPE": "U", "NORAD_CAT_ID": 44506, "ELEMENT_SET_NO": 999, "REV_AT_EPOCH": 4612, "BSTAR": 0, "MEAN_MOTION_DOT": -6.1e-07, "MEAN_MOTION_DDOT": 0}, "tle": {"line1": "1 44506U 19056A   25336.45102737 -.00000061  00000+0  00000+0 0  9994", "line2": "2 44506  55.7251 338.9617 0057816 198.4020 332.9603  2.00565569 46121"}}, "geometry": {"type": "Point", "coordinates": [111.37247762085003, 47.25358233356861]}}, {"type": "Feature", "properties": {"norad_id": 45854, "name": "GPS BIII-3  (PRN 23)", "group": "gps-ops", "lat": 47.256216384594715, "lon": 82.19091884113969, "alt_km": 20301.660139511605, "timestamp": "2025-12-03T08:58:46.254850+00:00", "meta": {"OBJECT_NAME": "GPS BIII-3  (PRN 23)", "OBJECT_ID": "2020-041A", "EPOCH": "2025-12-02T12:43:29.981568", "MEAN_MOTION": 2.00561721, "ECCENTRICITY": 0.0060247, "INCLINATION": 56.5397, "RA_OF_ASC_NODE": 36.584, "ARG_OF_PERICENTER": 202.9657, "MEAN_ANOMALY": 329.812, "EPHEMERIS_TYPE": 0, "CLASSIFICATION_TYPE": "U", "NORAD_CAT_ID": 45854, "ELEMENT_SET_NO": 999, "REV_AT_EPOCH": 4009, "BSTAR": 0, "MEAN_MOTION_DOT": -6.6e-07, "MEAN_MOTION_DDOT": 0}, "tle": {"line1": "1 45854U 20041A   25336.53020812 -.00000066  00000+0  00000+0 0  9994", "line2": "2 45854  56.5397  36.5840 0060247 202.9657 329.8120  2.00561721 40091"}}, "geometry": {"type": "Point", "coordinates": [82.19091884113969, 47.256216384594715]}}, {"type": "Feature", "properties": {"norad_id": 46826, "name": "GPS BIII-4  (PRN 14)", "group": "gps-ops", "lat": 25.89851823702428, "lon": -120.64075620481793, "alt_km": 20347.255853161187, "timestamp": "2025-12-03T08:58:46.254862+00:00", "meta": {"OBJECT_NAME": "GPS BIII-4  (PRN 14)", "OBJECT_ID": "2020-078A", "EPOCH": "2025-11-12T03:01:29.190720", "MEAN_MOTION": 2.00567032, "ECCENTRICITY": 0.0063911, "INCLINATION": 54.0223, "RA_OF_ASC_NODE": 219.5836, "ARG_OF_PERICENTER": 203.4986, "MEAN_ANOMALY": 326.7754, "EPHEMERIS_TYPE": 0, "CLASSIFICATION_TYPE": "U", "NORAD_CAT_ID": 46826, "ELEMENT_SET_NO": 999, "REV_AT_EPOCH": 3715, "BSTAR": 0, "MEAN_MOTION_DOT": -3.4e-07, "MEAN_MOTION_DDOT": 0}, "tle": {"line1": "1 46826U 20078A   25316.12603230 -.00000034  00000+0  00000+0 0  9993", "line2": "2 46826  54.0223 219.5836 0063911 203.4986 326.7754  2.00567032 37155"}}, "geometry": {"type": "Point", "coordinates": [-120.64075620481793, 25.89851823702428]}}, {"type": "Feature", "properties": {"norad_id": 48859, "name": "GPS BIII-5  (PRN 11)", "group": "gps-ops", "lat": -30.875756439108766, "lon": -175.15264567357443, "alt_km": 20123.48932990504, "timestamp": "2025-12-03T08:58:46.254874+00:00", "meta": {"OBJECT_NAME": "GPS BIII-5  (PRN 11)", "OBJECT_ID": "2021-054A", "EPOCH": "2025-11-30T17:12:22.002912", "MEAN_MOTION": 2.00553932, "ECCENTRICITY": 0.0024653, "INCLINATION": 55.2606, "RA_OF_ASC_NODE": 340.4377, "ARG_OF_PERICENTER": 232.9477, "MEAN_ANOMALY": 227.2059, "EPHEMERIS_TYPE": 0, "CLASSIFICATION_TYPE": "U", "NORAD_CAT_ID": 48859, "ELEMENT_SET_NO": 999, "REV_AT_EPOCH": 3277, "BSTAR": 0, "MEAN_MOTION_DOT": -5.5e-07, "MEAN_MOTION_DDOT": 0}, "tle": {"line1": "1 48859U 21054A   25334.71692133 -.00000055  00000+0  00000+0 0  9994", "line2": "2 48859  55.2606 340.4377 0024653 232.9477 227.2059  2.00553932 32777"}}, "geometry": {"type": "Point", "coordinates": [-175.15264567357443, -30.875756439108766]}}, {"type": "Feature", "properties": {"norad_id": 55268, "name": "GPS BIII-6  (PRN 28)", "group": "gps-ops", "lat": -54.0644788440335, "lon": 50.66441774030198, "alt_km": 20189.984016057537, "timestamp": "2025-12-03T08:58:46.254886+00:00", "meta": {"OBJECT_NAME": "GPS BIII-6  (PRN 28)", "OBJECT_ID": "2023-009A", "EPOCH": "2025-12-02T00:29:31.953408", "MEAN_MOTION": 2.00556444, "ECCENTRICITY": 0.00034715, "INCLINATION": 55.1057, "RA_OF_ASC_NODE": 156.2669, "ARG_OF_PERICENTER": 359.2649, "MEAN_ANOMALY": 4.3682, "EPHEMERIS_TYPE": 0, "CLASSIFICATION_TYPE": "U", "NORAD_CAT_ID": 55268, "ELEMENT_SET_NO": 999, "REV_AT_EPOCH": 2129, "BSTAR": 0, "MEAN_MOTION_DOT": 1.22e-06, "MEAN_MOTION_DDOT": 0}, "tle": {"line1": "1 55268U 23009A   25336.02050872  .00000122  00000+0  00000+0 0  9996", "line2": "2 55268  55.1057 156.2669 0003471 359.2649   4.3682  2.00556444 21296"}}, "geometry": {"type": "Point", "coordinates": [50.66441774030198, -54.0644788440335]}}]}